NORAD_CAT_ID,OBJECT_NAME,OBJECT_TYPE,EPOCH,MEAN_MOTION,ECCENTRICITY,INCLINATION,RA_OF_ASC_NODE,ARG_OF_PERICENTER,MEAN_ANOMALY,BSTAR,MEAN_MOTION_DOT,MEAN_MOTION_DDOT,TLE_LINE0,TLE_LINE1,TLE_LINE2,SEMIMAJOR_AXIS,PERIOD,APOGEE,PERIGEE,DECAYED
55432.0,STARLINK-5637,PAYLOAD,2024-03-22 04:15:51,14.98332851,0.0003191,69.9989,113.5112,271.0085,89.0708,7.2072e-05,7.67e-06,0.0,0 STARLINK-5637,1 55432U 23014AT  24082.17767436  .00000767  00000-0  72072-4 0  9998,2 55432  69.9989 113.5112 0003191 271.0085  89.0708 14.98332851 62657,6950.184,96.107,574.267,569.831,0.0
55432.0,STARLINK-5637,PAYLOAD,2024-03-22 12:16:30,14.98337451,0.000302,69.9987,112.6686,270.4879,89.5934,0.00014963,1.693e-05,0.0,0 STARLINK-5637,1 55432U 23014AT  24082.51146914  .00001693  00000-0  14963-3 0  9991,2 55432  69.9987 112.6686 0003020 270.4879  89.5934 14.98337451 63643,6950.17,96.107,574.134,569.936,0.0
55432.0,STARLINK-5637,PAYLOAD,2024-03-23 04:17:52,14.98321285,0.0002957,70.0005,110.9868,274.3171,85.765,4.183e-05,4.06e-06,0.0,0 STARLINK-5637,1 55432U 23014AT  24083.17908422  .00000406  00000-0  41830-4 0  9999,2 55432  70.0005 110.9868 0002957 274.3171  85.7650 14.98321285 62804,6950.22,96.108,574.14,570.03,0.0
55432.0,STARLINK-5637,PAYLOAD,2024-03-23 12:18:32,14.98376628,0.0003515,69.9986,110.1438,272.4383,87.6373,-0.00097189,-0.00011685,0.0,0 STARLINK-5637,1 55432U 23014AT  24083.51287079 -.00011685  00000-0 -97189-3 0  9995,2 55432  69.9986 110.1438 0003515 272.4383  87.6373 14.98376628 62858,6950.049,96.104,574.357,569.471,0.0
55432.0,STARLINK-5637,PAYLOAD,2024-03-23 18:43:05,14.98338115,0.0003064,69.9993,109.4691,275.9858,84.0952,-0.00026215,-3.22e-05,0.0,0 STARLINK-5637,1 55432U 23014AT  24083.77992239 -.00003220  00000-0 -26215-3 0  9992,2 55432  69.9993 109.4691 0003064 275.9858  84.0952 14.98338115 62899,6950.168,96.106,574.162,569.903,0.0
55432.0,STARLINK-5637,PAYLOAD,2024-03-24 04:19:54,14.98325389,0.0003105,69.9984,108.4605,273.3175,86.7629,-7.2528e-05,-9.58e-06,0.0,0 STARLINK-5637,1 55432U 23014AT  24084.18048835 -.00000958  00000-0 -72528-4 0  9996,2 55432  69.9984 108.4605 0003105 273.3175  86.7629 14.98325389 62959,6950.207,96.107,574.23,569.914,0.0
55432.0,STARLINK-5637,PAYLOAD,2024-03-24 12:20:34,14.98331029,0.0002981,69.9988,107.6191,273.3168,86.765,1.5626e-05,9.3e-07,0.0,0 STARLINK-5637,1 55432U 23014AT  24084.51428398  .00000093  00000-0  15626-4 0  9993,2 55432  69.9988 107.6191 0002981 273.3168  86.7650 14.98331029 63949,6950.19,96.107,574.127,569.983,0.0
55432.0,STARLINK-5637,PAYLOAD,2024-03-25 10:46:26,14.98336156,0.0002923,69.9985,105.2622,267.6679,92.4145,0.0002363,2.728e-05,0.0,0 STARLINK-5637,1 55432U 23014AT  24085.44891669  .00002728  00000-0  23630-3 0  9991,2 55432  69.9985 105.2622 0002923 267.6679  92.4145 14.98336156 63149,6950.174,96.107,574.07,570.007,0.0
55432.0,STARLINK-5637,PAYLOAD,2024-03-25 18:47:07,14.98328366,0.0002611,70.0006,104.419,277.2096,82.8766,0.00015508,1.758e-05,0.0,0 STARLINK-5637,1 55432U 23014AT  24085.78272618  .00001758  00000-0  15508-3 0  9992,2 55432  70.0006 104.4190 0002611 277.2096  82.8766 14.98328366 63192,6950.198,96.107,573.878,570.248,0.0
55432.0,STARLINK-5637,PAYLOAD,2024-03-26 04:23:58,14.98289259,0.0002946,69.9982,103.4087,260.1965,99.8861,-0.00025897,-3.178e-05,0.0,0 STARLINK-5637,1 55432U 23014AT  24086.18332151 -.00003178  00000-0 -25897-3 0  9998,2 55432  69.9982 103.4087 0002946 260.1965  99.8861 14.98289259 63251,6950.319,96.11,574.231,570.136,0.0
55432.0,STARLINK-5637,PAYLOAD,2024-03-26 10:48:29,14.98320401,0.0002596,69.9993,102.7359,259.0526,101.0341,0.00011085,1.23e-05,0.0,0 STARLINK-5637,1 55432U 23014AT  24086.45033884  .00001230  00000-0  11085-3 0  9998,2 55432  69.9993 102.7359 0002596 259.0526 101.0341 14.98320401 63296,6950.223,96.108,573.892,570.283,0.0
55432.0,STARLINK-5637,PAYLOAD,2024-03-26 18:49:09,14.98327958,0.0003057,69.9987,101.894,268.8872,91.1937,4.918e-05,4.94e-06,0.0,0 STARLINK-5637,1 55432U 23014AT  24086.78413571  .00000494  00000-0  49180-4 0  9998,2 55432  69.9987 101.8940 0003057 268.8872  91.1937 14.98327958 64284,6950.199,96.107,574.189,569.94,0.0
55432.0,STARLINK-5637,PAYLOAD,2024-03-27 04:25:57,14.98332833,0.0003029,69.9985,100.8853,269.6379,90.4433,2.6083e-05,2.18e-06,0.0,0 STARLINK-5637,1 55432U 23014AT  24087.18469334  .00000218  00000-0  26083-4 0  9992,2 55432  69.9985 100.8853 0003029 269.6379  90.4433 14.98332833 63408,6950.184,96.107,574.154,569.944,0.0
55432.0,STARLINK-5637,PAYLOAD,2024-03-27 10:50:29,14.98335299,0.0002984,69.9988,100.2122,269.973,90.1087,6.5994e-05,6.95e-06,0.0,0 STARLINK-5637,1 55432U 23014AT  24087.45173164  .00000695  00000-0  65994-4 0  9998,2 55432  69.9988 100.2122 0002984 269.9730  90.1087 14.98335299 64386,6950.177,96.107,574.115,569.968,0.0
55432.0,STARLINK-5637,PAYLOAD,2024-03-28 04:27:58,14.9832358,0.0003177,69.9985,98.3606,268.6043,91.4752,0.00045741,5.368e-05,0.0,0 STARLINK-5637,1 55432U 23014AT  24088.18609247  .00005368  00000-0  45741-3 0  9994,2 55432  69.9985  98.3606 0003177 268.6043  91.4752 14.98323580 63556,6950.213,96.107,574.286,569.87,0.0
55432.0,STARLINK-5637,PAYLOAD,2024-03-28 10:52:30,14.98319762,0.0003281,69.9988,97.6874,273.1099,86.9685,0.00065199,7.693e-05,0.0,0 STARLINK-5637,1 55432U 23014AT  24088.45313586  .00007693  00000-0  65199-3 0  9994,2 55432  69.9988  97.6874 0003281 273.1099  86.9685 14.98319762 64536,6950.225,96.108,574.37,569.809,0.0
55432.0,STARLINK-5637,PAYLOAD,2024-03-28 20:29:18,14.98343405,0.0003025,69.9988,96.6772,271.0824,88.9989,0.00023764,2.745e-05,0.0,0 STARLINK-5637,1 55432U 23014AT  24088.85368534  .00002745  00000-0  23764-3 0  9996,2 55432  69.9988  96.6772 0003025 271.0824  88.9989 14.98343405 63653,6950.151,96.106,574.119,569.914,0.0
55432.0,STARLINK-5637,PAYLOAD,2024-03-29 10:54:32,14.9831546,0.0002833,69.9999,95.162,272.8748,87.2087,0.0016929,0.00020157,0.0,0 STARLINK-5637,1 55432U 23014AT  24089.45454090  .00020157  00000-0  16929-2 0  9997,2 55432  69.9999  95.1620 0002833 272.8748  87.2087 14.98315460 63742,6950.238,96.108,574.072,570.134,0.0
55432.0,STARLINK-5637,PAYLOAD,2024-03-29 17:19:02,14.98346203,0.000285,70.0007,94.4866,278.568,81.5156,0.00014683,1.66e-05,0.0,0 STARLINK-5637,1 55432U 23014AT  24089.72155849  .00001660  00000-0  14683-3 0  9991,2 55432  70.0007  94.4866 0002850 278.5680  81.5156 14.98346203 63783,6950.143,96.106,573.989,570.027,0.0
55432.0,STARLINK-5637,PAYLOAD,2024-03-30 10:56:31,14.98338932,0.0002881,69.9991,92.6372,271.5475,88.5354,2.6852e-06,-6.1e-07,0.0,0 STARLINK-5637,1 55432U 23014AT  24090.45591977 -.00000061  00000-0  26852-5 0  9997,2 55432  69.9991  92.6372 0002881 271.5475  88.5354 14.98338932 63892,6950.165,96.106,574.033,570.028,0.0
55432.0,STARLINK-5637,PAYLOAD,2024-03-30 17:21:03,14.98338253,0.0002996,69.9989,91.9636,272.1651,87.9165,-8.2278e-06,-1.91e-06,0.0,0 STARLINK-5637,1 55432U 23014AT  24090.72295798 -.00000191  00000-0 -82278-5 0  9998,2 55432  69.9989  91.9636 0002996 272.1651  87.9165 14.98338253 64872,6950.167,96.106,574.115,569.95,0.0
55432.0,STARLINK-5637,PAYLOAD,2024-03-31 09:22:23,14.98337786,0.0002915,69.999,90.2805,271.5005,88.582,-4.0079e-05,-5.71e-06,0.0,0 STARLINK-5637,1 55432U 23014AT  24091.39055503 -.00000571  00000-0 -40079-4 0  9994,2 55432  69.9990  90.2805 0002915 271.5005  88.5820 14.98337786 64977,6950.169,96.106,574.06,570.008,0.0
55432.0,STARLINK-5637,PAYLOAD,2024-03-31 17:23:04,14.98335763,0.0002906,69.9991,89.4391,272.1037,87.9789,-7.9448e-05,-1.041e-05,0.0,0 STARLINK-5637,1 55432U 23014AT  24091.72435567 -.00001041  00000-0 -79448-4 0  9998,2 55432  69.9991  89.4391 0002906 272.1037  87.9789 14.98335763 64082,6950.175,96.107,574.06,570.02,0.0
55432.0,STARLINK-5637,PAYLOAD,2024-04-01 09:24:25,14.98329109,0.0002983,69.999,87.7553,271.1813,88.9004,2.8742e-05,2.5e-06,0.0,0 STARLINK-5637,1 55432U 23014AT  24092.39195701  .00000250  00000-0  28742-4 0  9995,2 55432  69.9990  87.7553 0002983 271.1813  88.9004 14.98329109 65122,6950.196,96.107,574.134,569.987,0.0
55432.0,STARLINK-5637,PAYLOAD,2024-04-01 17:25:05,14.98330402,0.0003005,69.999,86.9137,271.2139,88.8676,3.7188e-05,3.51e-06,0.0,0 STARLINK-5637,1 55432U 23014AT  24092.72575576  .00000351  00000-0  37188-4 0  9990,2 55432  69.9990  86.9137 0003005 271.2139  88.8676 14.98330402 64232,6950.192,96.107,574.145,569.968,0.0
55432.0,STARLINK-5637,PAYLOAD,2024-04-02 09:26:25,14.98325216,0.0003073,69.999,85.2303,272.5367,87.544,0.00019049,2.18e-05,0.0,0 STARLINK-5637,1 55432U 23014AT  24093.39335541  .00002180  00000-0  19049-3 0  9997,2 55432  69.9990  85.2303 0003073 272.5367  87.5440 14.98325216 65278,6950.208,96.107,574.208,569.937,0.0
55432.0,STARLINK-5637,PAYLOAD,2024-04-03 03:03:54,14.98330038,0.0003053,69.999,83.3787,270.9392,89.1417,4.6588e-05,4.63e-06,0.0,0 STARLINK-5637,1 55432U 23014AT  24094.12771493  .00000463  00000-0  46588-4 0  9990,2 55432  69.9990  83.3787 0003053 270.9392  89.1417 14.98330038 64449,6950.193,96.107,574.18,569.936,0.0
55432.0,STARLINK-5637,PAYLOAD,2024-04-03 09:28:26,14.98331562,0.0003038,69.9991,82.7052,271.0296,89.0515,6.5598e-05,6.9e-06,0.0,0 STARLINK-5637,1 55432U 23014AT  24094.39475342  .00000690  00000-0  65598-4 0  9997,2 55432  69.9991  82.7052 0003038 271.0296  89.0515 14.98331562 65426,6950.188,96.107,574.165,569.942,0.0
55432.0,STARLINK-5637,PAYLOAD,2024-04-03 22:17:31,14.98329232,0.0002953,69.9993,81.3586,271.5572,88.5248,-2.6516e-06,-1.25e-06,0.0,0 STARLINK-5637,1 55432U 23014AT  24094.92883672 -.00000125  00000-0 -26516-5 0  9998,2 55432  69.9993  81.3586 0002953 271.5572  88.5248 14.98329232 65509,6950.195,96.107,574.113,570.008,0.0
55432.0,STARLINK-5637,PAYLOAD,2024-04-04 04:42:03,14.98330996,0.000284,69.9993,80.6856,272.1482,87.9352,-6.4203e-05,-8.59e-06,0.0,0 STARLINK-5637,1 55432U 23014AT  24095.19587725 -.00000859  00000-0 -64203-4 0  9996,2 55432  69.9993  80.6856 0002840 272.1482  87.9352 14.98330996 64601,6950.19,96.107,574.029,570.081,0.0
